start=new Date('2023-05-03T00:00:00.000Z').valueOf();
sats=[{"BSTAR":"0.00071979000000","MEAN_ELEMENT_THEORY":"SGP4","REF_FRAME":"TEME","CLASSIFICATION_TYPE":"U","NORAD_CAT_ID":"45188","COUNTRY_CODE":"US","LAUNCH_DATE":"2020-02-17","DECAY_DATE":null,"RA_OF_ASC_NODE":"3.3874","PERIOD":"95.591","MEAN_ANOMALY":"260.2020","GP_ID":"231119612","ARG_OF_PERICENTER":"99.9088","EPHEMERIS_TYPE":"0","TLE_LINE2":"2 45188  53.0551   3.3874 0001055  99.9088 260.2020 15.06412959178321","SITE":"AFETR","RCS_SIZE":"LARGE","MEAN_MOTION_DOT":"0.00010460","OBJECT_ID":"2020-012L","MEAN_MOTION":"15.06412959","OBJECT_NAME":"STARLINK-1228","MEAN_MOTION_DDOT":"0.0000000000000","FILE":"3899277","ELEMENT_SET_NO":"999","INCLINATION":"53.0551","REV_AT_EPOCH":"17832","TLE_LINE1":"1 45188U 20012L   23122.90186178  .00010460  00000-0  71979-3 0  9998","CENTER_NAME":"EARTH","SEMIMAJOR_AXIS":"6925.309","TIME_SYSTEM":"UTC","OBJECT_TYPE":"PAYLOAD","ECCENTRICITY":"0.00010550","EPOCH":"2023-05-02T21:38:40.857792","APOAPSIS":"547.904","PERIAPSIS":"546.443"},{"CENTER_NAME":"EARTH","SEMIMAJOR_AXIS":"6925.270","TIME_SYSTEM":"UTC","FILE":"3899277","ELEMENT_SET_NO":"999","REV_AT_EPOCH":"17501","INCLINATION":"53.0554","TLE_LINE1":"1 45189U 20012M   23122.74336425  .00020760  00000-0  14075-2 0  9990","EPOCH":"2023-05-02T17:50:26.671200","APOAPSIS":"547.975","PERIAPSIS":"546.294","OBJECT_TYPE":"PAYLOAD","ECCENTRICITY":"0.00012140","ARG_OF_PERICENTER":"89.2954","GP_ID":"231119862","TLE_LINE2":"2 45189  53.0554  44.0935 0001214  89.2954 270.8174 15.06425731175018","EPHEMERIS_TYPE":"0","SITE":"AFETR","MEAN_ELEMENT_THEORY":"SGP4","BSTAR":"0.00140750000000","REF_FRAME":"TEME","NORAD_CAT_ID":"45189","CLASSIFICATION_TYPE":"U","COUNTRY_CODE":"US","DECAY_DATE":null,"LAUNCH_DATE":"2020-02-17","PERIOD":"95.591","RA_OF_ASC_NODE":"44.0935","MEAN_ANOMALY":"270.8174","OBJECT_ID":"2020-012M","MEAN_MOTION":"15.06425731","OBJECT_NAME":"STARLINK-1230","MEAN_MOTION_DDOT":"0.0000000000000","MEAN_MOTION_DOT":"0.00020760","RCS_SIZE":"LARGE"},{"MEAN_MOTION_DOT":"0.00017807","RCS_SIZE":"LARGE","OBJECT_ID":"2020-012N","MEAN_MOTION":"15.06428361","MEAN_MOTION_DDOT":"0.0000000000000","OBJECT_NAME":"STARLINK-1234","CLASSIFICATION_TYPE":"U","NORAD_CAT_ID":"45190","MEAN_ELEMENT_THEORY":"SGP4","BSTAR":"0.00121040000000","REF_FRAME":"TEME","DECAY_DATE":null,"LAUNCH_DATE":"2020-02-17","PERIOD":"95.590","RA_OF_ASC_NODE":"3.4155","MEAN_ANOMALY":"255.3154","COUNTRY_CODE":"US","ARG_OF_PERICENTER":"104.7964","GP_ID":"231121113","TLE_LINE2":"2 45190  53.0550   3.4155 0001168 104.7964 255.3154 15.06428361178270","EPHEMERIS_TYPE":"0","SITE":"AFETR","ECCENTRICITY":"0.00011680","OBJECT_TYPE":"PAYLOAD","APOAPSIS":"547.936","EPOCH":"2023-05-02T21:28:03.551520","PERIAPSIS":"546.318","ELEMENT_SET_NO":"999","REV_AT_EPOCH":"17827","INCLINATION":"53.0550","FILE":"3899277","TLE_LINE1":"1 45190U 20012N   23122.89448555  .00017807  00000-0  12104-2 0  9995","TIME_SYSTEM":"UTC","CENTER_NAME":"EARTH","SEMIMAJOR_AXIS":"6925.262"},{"TLE_LINE1":"1 45191U 20012P   23122.21996034  .00005618  00000-0  39575-3 0  9991","ELEMENT_SET_NO":"999","REV_AT_EPOCH":"17492","INCLINATION":"53.0549","FILE":"3899068","TIME_SYSTEM":"UTC","CENTER_NAME":"EARTH","SEMIMAJOR_AXIS":"6925.346","ECCENTRICITY":"0.00008320","OBJECT_TYPE":"PAYLOAD","PERIAPSIS":"546.635","APOAPSIS":"547.787","EPOCH":"2023-05-02T05:16:44.573376","RA_OF_ASC_NODE":"46.4426","DECAY_DATE":null,"LAUNCH_DATE":"2020-02-17","PERIOD":"95.592","MEAN_ANOMALY":"256.4879","COUNTRY_CODE":"US","CLASSIFICATION_TYPE":"U","NORAD_CAT_ID":"45191","BSTAR":"0.00039575000000","MEAN_ELEMENT_THEORY":"SGP4","REF_FRAME":"TEME","TLE_LINE2":"2 45191  53.0549  46.4426 0000832 103.6202 256.4879 15.06400813174923","EPHEMERIS_TYPE":"0","SITE":"AFETR","GP_ID":"231089913","ARG_OF_PERICENTER":"103.6202","MEAN_MOTION_DOT":"0.00005618","RCS_SIZE":"LARGE","MEAN_MOTION_DDOT":"0.0000000000000","OBJECT_NAME":"STARLINK-1236","OBJECT_ID":"2020-012P","MEAN_MOTION":"15.06400813"},{"ECCENTRICITY":"0.00013810","OBJECT_TYPE":"PAYLOAD","PERIAPSIS":"546.274","APOAPSIS":"548.187","EPOCH":"2023-05-02T04:39:36.014976","TLE_LINE1":"1 45192U 20012Q   23122.19416684  .00003214  00000-0  23461-3 0  9994","INCLINATION":"53.0537","REV_AT_EPOCH":"17771","ELEMENT_SET_NO":"999","FILE":"3899068","TIME_SYSTEM":"UTC","SEMIMAJOR_AXIS":"6925.366","CENTER_NAME":"EARTH","MEAN_MOTION_DOT":"0.00003214","RCS_SIZE":"LARGE","MEAN_MOTION_DDOT":"0.0000000000000","OBJECT_NAME":"STARLINK-1237","MEAN_MOTION":"15.06394430","OBJECT_ID":"2020-012Q","MEAN_ANOMALY":"274.2504","DECAY_DATE":null,"LAUNCH_DATE":"2020-02-17","RA_OF_ASC_NODE":"46.5581","PERIOD":"95.592","COUNTRY_CODE":"US","NORAD_CAT_ID":"45192","CLASSIFICATION_TYPE":"U","REF_FRAME":"TEME","MEAN_ELEMENT_THEORY":"SGP4","BSTAR":"0.00023461000000","EPHEMERIS_TYPE":"0","TLE_LINE2":"2 45192  53.0537  46.5581 0001381  85.8643 274.2504 15.06394430177714","SITE":"AFETR","GP_ID":"231088663","ARG_OF_PERICENTER":"85.8643"},{"DECAY_DATE":null,"RA_OF_ASC_NODE":"46.6083","LAUNCH_DATE":"2020-02-17","PERIOD":"95.593","MEAN_ANOMALY":"253.0987","COUNTRY_CODE":"US","CLASSIFICATION_TYPE":"U","NORAD_CAT_ID":"45193","MEAN_ELEMENT_THEORY":"SGP4","BSTAR":"0.00062718000000","REF_FRAME":"TEME","EPHEMERIS_TYPE":"0","TLE_LINE2":"2 45193  53.0541  46.6083 0001486 107.0165 253.0987 15.06393736177651","SITE":"AFETR","GP_ID":"231088912","ARG_OF_PERICENTER":"107.0165","MEAN_MOTION_DOT":"0.00009071","RCS_SIZE":"LARGE","MEAN_MOTION_DDOT":"0.0000000000000","OBJECT_NAME":"STARLINK-1239","OBJECT_ID":"2020-012R","MEAN_MOTION":"15.06393736","TLE_LINE1":"1 45193U 20012R   23122.18310780  .00009071  00000-0  62718-3 0  9999","ELEMENT_SET_NO":"999","INCLINATION":"53.0541","REV_AT_EPOCH":"17765","FILE":"3899068","TIME_SYSTEM":"UTC","CENTER_NAME":"EARTH","SEMIMAJOR_AXIS":"6925.368","ECCENTRICITY":"0.00014860","OBJECT_TYPE":"PAYLOAD","PERIAPSIS":"546.204","APOAPSIS":"548.262","EPOCH":"2023-05-02T04:23:40.513920"},{"REF_FRAME":"TEME","MEAN_ELEMENT_THEORY":"SGP4","BSTAR":"0.00094509000000","CLASSIFICATION_TYPE":"U","NORAD_CAT_ID":"45194","COUNTRY_CODE":"US","MEAN_ANOMALY":"266.4955","DECAY_DATE":null,"LAUNCH_DATE":"2020-02-17","RA_OF_ASC_NODE":"46.5970","PERIOD":"95.592","ARG_OF_PERICENTER":"93.6181","GP_ID":"231090164","TLE_LINE2":"2 45194  53.0550  46.5970 0001286  93.6181 266.4955 15.06404827177604","SITE":"AFETR","EPHEMERIS_TYPE":"0","MEAN_MOTION_DOT":"0.00013825","RCS_SIZE":"LARGE","MEAN_MOTION":"15.06404827","OBJECT_ID":"2020-012S","OBJECT_NAME":"STARLINK-1240","MEAN_MOTION_DDOT":"0.0000000000000","FILE":"3899068","INCLINATION":"53.0550","REV_AT_EPOCH":"17760","ELEMENT_SET_NO":"999","TLE_LINE1":"1 45194U 20012S   23122.18679814  .00013825  00000-0  94509-3 0  9991","SEMIMAJOR_AXIS":"6925.334","CENTER_NAME":"EARTH","TIME_SYSTEM":"UTC","OBJECT_TYPE":"PAYLOAD","ECCENTRICITY":"0.00012860","EPOCH":"2023-05-02T04:28:59.359296","APOAPSIS":"548.089","PERIAPSIS":"546.308"},{"COUNTRY_CODE":"US","MEAN_ANOMALY":"206.3175","DECAY_DATE":null,"LAUNCH_DATE":"2020-02-17","RA_OF_ASC_NODE":"11.6316","PERIOD":"93.282","REF_FRAME":"TEME","MEAN_ELEMENT_THEORY":"SGP4","BSTAR":"0.00282080000000","CLASSIFICATION_TYPE":"U","NORAD_CAT_ID":"45195","SITE":"AFETR","TLE_LINE2":"2 45195  53.0489  11.6316 0007651 153.8218 206.3175 15.43706737178261","EPHEMERIS_TYPE":"0","ARG_OF_PERICENTER":"153.8218","GP_ID":"231121357","MEAN_MOTION_DOT":"0.00131231","RCS_SIZE":"LARGE","OBJECT_NAME":"STARLINK-1241","MEAN_MOTION_DDOT":"0.0000000000000","MEAN_MOTION":"15.43706737","OBJECT_ID":"2020-012T","TLE_LINE1":"1 45195U 20012T   23122.89431854  .00131231  00000-0  28208-2 0  9994","FILE":"3899277","REV_AT_EPOCH":"17826","INCLINATION":"53.0489","ELEMENT_SET_NO":"999","SEMIMAJOR_AXIS":"6813.318","CENTER_NAME":"EARTH","TIME_SYSTEM":"UTC","OBJECT_TYPE":"PAYLOAD","ECCENTRICITY":"0.00076510","PERIAPSIS":"429.970","EPOCH":"2023-05-02T21:27:49.121856","APOAPSIS":"440.396"},{"REV_AT_EPOCH":"17784","INCLINATION":"53.0539","ELEMENT_SET_NO":"999","FILE":"3899277","TLE_LINE1":"1 45196U 20012U   23122.76547111  .00031677  00000-0  21346-2 0  9994","TIME_SYSTEM":"UTC","SEMIMAJOR_AXIS":"6925.278","CENTER_NAME":"EARTH","ECCENTRICITY":"0.00010530","OBJECT_TYPE":"PAYLOAD","APOAPSIS":"547.872","EPOCH":"2023-05-02T18:22:16.703904","PERIAPSIS":"546.413","NORAD_CAT_ID":"45196","CLASSIFICATION_TYPE":"U","REF_FRAME":"TEME","MEAN_ELEMENT_THEORY":"SGP4","BSTAR":"0.00213460000000","MEAN_ANOMALY":"252.8165","DECAY_DATE":null,"LAUNCH_DATE":"2020-02-17","PERIOD":"95.591","RA_OF_ASC_NODE":"43.9948","COUNTRY_CODE":"US","ARG_OF_PERICENTER":"107.2939","GP_ID":"231119613","TLE_LINE2":"2 45196  53.0539  43.9948 0001053 107.2939 252.8165 15.06423133177843","SITE":"AFETR","EPHEMERIS_TYPE":"0","RCS_SIZE":"LARGE","MEAN_MOTION_DOT":"0.00031677","MEAN_MOTION":"15.06423133","OBJECT_ID":"2020-012U","MEAN_MOTION_DDOT":"0.0000000000000","OBJECT_NAME":"STARLINK-1244"},{"TLE_LINE1":"1 45197U 20012V   23122.15730700  .00006930  00000-0  48368-3 0  9994","FILE":"3899068","ELEMENT_SET_NO":"999","REV_AT_EPOCH":"17767","INCLINATION":"53.0556","CENTER_NAME":"EARTH","SEMIMAJOR_AXIS":"6925.355","TIME_SYSTEM":"UTC","OBJECT_TYPE":"PAYLOAD","ECCENTRICITY":"0.00010330","PERIAPSIS":"546.504","EPOCH":"2023-05-02T03:46:31.324800","APOAPSIS":"547.935","COUNTRY_CODE":"US","RA_OF_ASC_NODE":"46.7247","DECAY_DATE":null,"LAUNCH_DATE":"2020-02-17","PERIOD":"95.592","MEAN_ANOMALY":"267.5688","MEAN_ELEMENT_THEORY":"SGP4","BSTAR":"0.00048368000000","REF_FRAME":"TEME","CLASSIFICATION_TYPE":"U","NORAD_CAT_ID":"45197","TLE_LINE2":"2 45197  53.0556  46.7247 0001033  92.5419 267.5688 15.06397960177675","EPHEMERIS_TYPE":"0","SITE":"AFETR","ARG_OF_PERICENTER":"92.5419","GP_ID":"231089413","MEAN_MOTION_DOT":"0.00006930","RCS_SIZE":"LARGE","OBJECT_NAME":"STARLINK-1269","MEAN_MOTION_DDOT":"0.0000000000000","OBJECT_ID":"2020-012V","MEAN_MOTION":"15.06397960"}];
